[{"OBJECT_NAME":"ONEWEB-0063","OBJECT_ID":"2020-020AA","EPOCH":"2026-03-09T21:52:54.225408","MEAN_MOTION":13.11415684,"ECCENTRICITY":0.00017785,"INCLINATION":87.8872,"RA_OF_ASC_NODE":40.7986,"ARG_OF_PERICENTER":74.677,"MEAN_ANOMALY":285.4554,"EPHEMERIS_TYPE":0,"CLASSIFICATION_TYPE":"U","NORAD_CAT_ID":45448,"ELEMENT_SET_NO":999,"REV_AT_EPOCH":28968,"BSTAR":0.0014122502,"MEAN_MOTION_DOT":5.13e-6,"MEAN_MOTION_DDOT":0},{"OBJECT_NAME":"BREEZE-KM DEB","OBJECT_ID":"2015-020L","EPOCH":"2026-03-08T03:10:36.885504","MEAN_MOTION":12.92886112,"ECCENTRICITY":0.02211074,"INCLINATION":82.486,"RA_OF_ASC_NODE":217.4544,"ARG_OF_PERICENTER":105.5363,"MEAN_ANOMALY":257.0274,"EPHEMERIS_TYPE":0,"CLASSIFICATION_TYPE":"U","NORAD_CAT_ID":41723,"ELEMENT_SET_NO":999,"REV_AT_EPOCH":48627,"BSTAR":0.00078945926,"MEAN_MOTION_DOT":2.53e-6,"MEAN_MOTION_DDOT":0}]
